# From MPEC 2023-J29
428P/Gibbs,e,8.5025,299.3065,36.8835,3.489036,0.1512328,0.51810010,248.8481,11/13.0/2025,2000,g 15.0,4.0
# From MPEC 2024-EF7
429P/LINEAR-Hill,e,7.5140,322.0023,75.7505,3.556274,0.1469641,0.49065861,207.3632,11/13.0/2025,2000,g 15.5,4.0
# From MPEC 2022-L66
430P/Scotti,e,4.4759,54.6397,94.4724,3.102802,0.1803321,0.50042792,259.8407,11/13.0/2025,2000,g 16.5,4.0
# From MPC181194
431P/Scotti,e,22.3759,202.8325,200.0119,3.477354,0.1519955,0.47719016,208.0164,11/13.0/2025,2000,g 14.0,4.0
# From MPEC 2021-U31
432P/PANSTARRS,e,10.0672,239.1310,105.2433,3.038692,0.1860690,0.24074990,286.0571,11/13.0/2025,2000,g 17.0,4.0
# From MPEC 2024-D33
434P/Tenagra,e,6.3365,288.9094,128.4738,4.136674,0.1171459,0.27412370,173.1364,11/13.0/2025,2000,g 13.0,4.0
# From MPEC 2021-W31
435P/PANSTARRS,e,18.8747,98.5235,244.1879,3.021990,0.1876137,0.31748079,294.7785,11/13.0/2025,2000,g 17.0,4.0
# From MPEC 2023-B57
437P/Lemmon-PANSTARRS,e,3.6887,245.8417,207.1119,4.569980,0.1008864,0.25497610,119.0970,11/13.0/2025,2000,g 13.0,4.0
# From MPC181194
438P/Christensen,e,8.2807,260.1088,58.9605,3.853328,0.1303017,0.41408628,267.3442,11/13.0/2025,2000,g 14.5,4.0
# From MPEC 2022-C56
439P/LINEAR,e,7.1110,56.4378,342.1074,3.492113,0.1510329,0.46893965,232.5449,11/13.0/2025,2000,g 13.5,4.0
# From MPEC 2025-VD2
441P/PANSTARRS,e,2.5745,143.5863,178.8538,4.131323,0.1173736,0.19446813,7.5930,11/13.0/2025,2000,g 13.5,4.0
# From MPEC 2024-N80
442P/McNaught,e,6.0580,31.9085,310.6151,4.951762,0.0894467,0.53265056,105.8777,11/13.0/2025,2000,g 13.5,4.0
# From MPEC 2024-TD8
443P/PANSTARRS-Christensen,e,19.8880,108.9330,145.0438,4.124372,0.1176704,0.28283104,133.0810,11/13.0/2025,2000,g 13.5,4.0
# From MPC188421
445P/Lemmon-PANSTARRS,e,1.0891,126.5946,213.1160,4.044576,0.1211699,0.41442275,143.5932,11/13.0/2025,2000,g 15.0,4.0
# From MPEC 2022-YB4
447P/Sheppard-Tholen,e,7.4416,302.6383,97.4059,5.623714,0.0739042,0.17701826,87.6477,11/13.0/2025,2000,g 12.0,4.0
# From MPEC 2024-DC6
449P/Leonard,e,15.4687,242.5190,176.7786,3.599615,0.1443179,0.47971383,261.6864,11/13.0/2025,2000,g 16.0,4.0
# From MPEC 2025-UQ3
450P/LONEOS,e,10.8364,123.9695,25.5023,7.882893,0.0445324,0.31301514,339.3631,11/13.0/2025,2000,g  6.5,4.0
# From MPEC 2023-HD1
451P/Christensen,e,26.4871,300.8629,186.8163,6.351799,0.0615686,0.55929578,66.5486,11/13.0/2025,2000,g 13.5,4.0
# From MPEC 2024-NE4
452P/Sheppard-Jewitt,e,6.4223,123.6611,37.1192,7.313353,0.0498344,0.42873409,46.4351,11/13.0/2025,2000,g  9.0,4.0
# From MPEC 2023-RF3
453P/WISE-Lemmon,e,27.0551,42.8872,70.9194,5.468565,0.0770715,0.58317743,75.9568,11/13.0/2025,2000,g 14.0,4.0
# From MPEC 2023-CD7
454P/PANSTARRS,e,19.8070,54.5866,20.2210,4.212168,0.1140107,0.36130646,137.4179,11/13.0/2025,2000,g 14.0,4.0
# From MPEC 2022-Y14
455P/PANSTARRS,e,14.1339,146.1759,237.5398,3.153761,0.1759790,0.30427672,174.6184,11/13.0/2025,2000,g 17.0,4.0
# From MPC182892
456P/PANSTARRS,e,16.9649,243.1382,232.9782,3.168729,0.1747336,0.11565787,37.0846,11/13.0/2025,2000,g 13.5,4.0
# From MPC181194
457P/Lemmon-PANSTARRS,e,5.2258,175.9639,104.2929,2.645009,0.2291201,0.11831591,103.1142,11/13.0/2025,2000,g 15.5,4.0
# From MPEC 2023-HD1
458P/Jahn,e,13.6217,1.5498,104.9676,3.859547,0.1299869,0.31725421,144.1614,11/13.0/2025,2000,g 14.0,4.0
# From MPEC 2024-N80
459P/Catalina,e,7.1732,256.9862,205.2356,3.240486,0.1689619,0.57787390,168.1486,11/13.0/2025,2000,g 15.5,4.0
# From MPEC 2024-Q20
464P/PANSTARRS,e,21.6740,309.5789,267.4902,4.683145,0.0972518,0.28070418,96.2521,11/13.0/2025,2000,g 10.5,4.0
# From MPEC 2024-NE4
465P/Hill,e,25.8618,217.9353,140.9667,6.004432,0.0669879,0.61299749,61.5830,11/13.0/2025,2000,g 12.5,4.0
# From MPEC 2024-JU4
466P/PANSTARRS,e,14.8804,115.8753,197.9873,3.970101,0.1245953,0.49139482,113.8709,11/13.0/2025,2000,g 14.0,4.0
# From MPC181194
467P/LINEAR-Grauer,e,2.4794,43.2620,267.2467,5.824534,0.0701152,0.05427576,76.1140,11/13.0/2025,2000,g  9.0,4.0
# From MPEC 2024-O39
468P/SidingSpring,e,50.4549,356.1295,322.5593,7.114843,0.0519345,0.44476719,37.5526,11/13.0/2025,2000,g 11.5,4.0
# From MPC181194
469P/PANSTARRS,e,20.1711,178.9657,43.4913,4.343470,0.1088802,0.30815528,357.2365,11/13.0/2025,2000,g 13.5,4.0
# From MPC182892
470P/PANSTARRS,e,8.8439,246.1620,151.6542,4.462135,0.1045659,0.38925600,72.9325,11/13.0/2025,2000,g 15.5,4.0
# From MPC182892
471P/LINEAR-Lemmon,e,4.7970,283.3125,94.7384,5.688947,0.0726367,0.62758539,50.4331,11/13.0/2025,2000,g 12.0,4.0
# From MPEC 2025-V36
472P/NEAT-LINEAR,e,10.8261,205.8124,218.8079,7.765818,0.0455432,0.56392563,22.1917,11/13.0/2025,2000,g 10.5,4.0
# From MPEC 2024-MB8
473P/NEAT,e,56.8866,22.1913,42.9457,7.973724,0.0437736,0.82357792,27.3927,11/13.0/2025,2000,g 13.5,4.0
# From MPEC 2024-B74
474P/Hogan,e,1.0969,26.7515,11.2707,3.130852,0.1779140,0.18791862,151.4841,11/13.0/2025,2000,g 15.5,4.0
# From MPC185666
475P/Spacewatch-LINEAR,e,14.5240,147.3534,40.4225,7.320237,0.0497641,0.44300395,26.3376,11/13.0/2025,2000,g 11.0,4.0
# From MPC184421
476P/PANSTARRS,e,19.0053,57.0488,46.7434,4.774589,0.0944713,0.34577536,37.0805,11/13.0/2025,2000,g 12.5,4.0
# From MPEC 2024-GJ3
477P/PANSTARRS,e,8.9139,59.1403,305.8594,3.001593,0.1895293,0.41756805,130.3099,11/13.0/2025,2000,g 14.5,4.0
# From MPEC 2024-L77
478P/ATLAS,e,12.5252,127.2592,13.2668,3.648486,0.1414279,0.34381056,79.1633,11/13.0/2025,2000,g 13.5,4.0
# From MPEC 2024-PC5
479P/Elenin,e,15.3996,295.8319,263.4960,5.622624,0.0739257,0.77897291,41.1544,11/13.0/2025,2000,g 15.0,4.0
# From MPC182893
480P/PANSTARRS,e,13.7157,229.9841,214.4637,4.611784,0.0995178,0.24624358,92.9547,11/13.0/2025,2000,g 12.0,4.0
# From MPC181195
481P/Lemmon-PANSTARRS,e,6.0827,93.5499,356.8407,4.682726,0.0972648,0.34341495,83.4135,11/13.0/2025,2000,g 13.5,4.0
# From MPEC 2024-JU4
482P/PANSTARRS,e,24.4889,126.0722,339.7446,3.757284,0.1353297,0.49235235,121.0870,11/13.0/2025,2000,g 13.5,4.0
# From MPC186638
483P-A/PANSTARRS,e,14.1740,199.0258,49.5279,3.195265,0.1725615,0.22172780,234.1761,11/13.0/2025,2000,g 13.5,4.0
# From MPC185666
483P-B/PANSTARRS,e,14.1748,199.0250,49.5186,3.195183,0.1725681,0.22167048,234.2120,11/13.0/2025,2000,g 17.0,4.0
# From MPEC 2024-DD5
484P/Spacewatch,e,14.4742,265.3712,240.8253,3.756312,0.1353822,0.43310683,245.1243,11/13.0/2025,2000,g 16.0,4.0
# From MPEC 2024-JU4
485P/Sheppard-Tholen,e,10.0160,261.6452,196.1355,6.852681,0.0549431,0.41718338,44.5368,11/13.0/2025,2000,g 13.0,4.0
# From MPEC 2025-VD2
486P/Leonard,e,2.2097,219.0249,93.9361,3.627037,0.1426843,0.36340713,31.8446,11/13.0/2025,2000,g 14.5,4.0
# From MPC188421
487P/SidingSpring,e,39.3662,49.2006,0.8393,5.160708,0.0840698,0.64834916,32.6563,11/13.0/2025,2000,g 13.5,4.0
# From MPEC 2024-UA9
488P/NEAT-PANSTARRS,e,11.4256,323.6426,2.2311,3.751395,0.1356485,0.55162028,73.4956,11/13.0/2025,2000,g 16.5,4.0
# From MPEC 2024-Q14
489P/Denning,e,4.0259,20.6002,109.4184,4.425705,0.1058596,0.64720928,357.7444,11/13.0/2025,2000,g 15.5,4.0
# From MPEC 2025-V36
491P/Spacewatch-PANSTARRS,e,9.3669,311.6834,298.8471,5.012767,0.0878188,0.25868755,38.0434,11/13.0/2025,2000,g  9.5,4.0
# From MPC185666
492P/LINEAR,e,11.4011,11.3049,40.9812,5.758368,0.0713272,0.69052056,34.2796,11/13.0/2025,2000,g 15.0,4.0
# From MPEC 2025-VD2
493P/LONEOS,e,24.1085,1.0897,83.2212,7.174737,0.0512856,0.46716223,356.8154,11/13.0/2025,2000,g 12.0,2.0
# From MPEC 2024-RQ6
494P/PANSTARRS,e,7.7899,245.0434,48.8848,3.794353,0.1333514,0.35670136,70.8168,11/13.0/2025,2000,g 16.0,4.0
# From MPC188421
495P/Christensen,e,26.3565,291.6133,141.3337,4.761051,0.0948746,0.27330678,2.0574,11/13.0/2025,2000,g 11.5,4.0
# From MPC188421
496P/Hill,e,14.8143,63.5866,42.2507,6.099213,0.0654325,0.73420246,16.2090,11/13.0/2025,2000,g 14.0,4.0
# From MPC184421
497P/Spacewatch-PANSTARRS,e,10.4370,40.3611,32.3887,5.611089,0.0741538,0.63023517,20.0774,11/13.0/2025,2000,g 17.5,4.0
# From MPC184421
498P/LINEAR,e,14.4827,279.2299,179.0897,4.592952,0.1001305,0.57227252,32.9512,11/13.0/2025,2000,g 14.7,4.0
# From MPC188422
499P/Catalina,e,24.5832,139.3048,2.5660,3.018052,0.1879811,0.69149377,47.6717,11/13.0/2025,2000,g 18.5,4.0
# From MPC185667
500P/PANSTARRS,e,2.3015,111.5265,46.7044,3.416252,0.1560915,0.37594805,35.2789,11/13.0/2025,2000,g 16.0,4.0
# From MPC188422
502P/NEAT,e,11.3994,264.4835,37.7282,7.995518,0.0435947,0.47102042,4.3604,11/13.0/2025,2000,g  8.5,4.0
# From MPC185667
503P/PANSTARRS,e,10.5748,268.5819,17.9437,3.658054,0.1408734,0.48131754,1.0495,11/13.0/2025,2000,g 15.0,4.0
# From MPC186639
504P/,e,8.8064,221.1199,308.5352,3.744923,0.1360003,0.40609549,29.6393,11/13.0/2025,2000,g 14.3,4.0
# From MPC184407
505P/Palomar,e,11.3883,111.9418,143.9528,4.113017,0.1181580,0.31069863,352.2421,11/13.0/2025,2000,g 14.9,4.0
# From MPC186639
506P/,e,13.6547,325.6221,354.5849,5.585341,0.0746672,0.48240878,60.4351,11/13.0/2025,2000,g 12.7,4.0
# From MPC184407
507P/Lemmon,e,17.0902,233.1322,107.7636,6.212489,0.0636511,0.56855931,68.6302,11/13.0/2025,2000,g 12.6,4.0
# From MPC188422
508P/McNaught,e,31.7333,268.8299,338.8767,3.574897,0.1458172,0.56942036,18.1909,11/13.0/2025,2000,g 16.5,4.0
# From MPEC 2025-VD2
509P/Catalina,e,8.6041,275.2079,180.1031,7.037692,0.0527909,0.47527193,353.3042,11/13.0/2025,2000,g 10.0,4.0
# From MPC188422
510P/Boattini,e,8.2276,280.6686,86.6865,6.483413,0.0597033,0.24805720,342.0753,11/13.0/2025,2000,g  9.5,4.0
# From MPEC 2025-UQ3
511P/PANSTARRS,e,14.7853,271.0275,81.2248,3.010107,0.1887258,0.23723864,23.5847,11/13.0/2025,2000,g 17.1,4.0
# From MPC188422
512P/PANSTARRS,e,12.5687,73.7452,308.7283,5.698450,0.0724551,0.15744706,331.9524,11/13.0/2025,2000,g 10.0,4.0
# From MPEC 2025-VD2
513P/Broughton,e,21.3856,56.9969,304.8666,7.255388,0.0504328,0.55155517,7.6773,11/13.0/2025,2000,g 11.0,4.0
# From MPC107687
1I/`Oumuamua,h,09/09.4886/2017,122.6778,24.5997,241.6845,1.199252,0.255240,2000,23.0,2.0
# From MPEC 2025-R69
2I/Borisov,h,12/09.0572/2019,44.2624,307.8024,209.2911,3.345952,1.997724,2000,11.0,4.0
# From MPEC 2025-V36
3I/ATLAS,h,10/29.4838/2025,175.1131,322.1577,128.0122,6.138798,1.356362,2000,11.8,4.0
